[{"OBJECT_NAME":"COSMOS 2576","OBJECT_ID":"2024-092A","EPOCH":"2026-03-09T19:49:29.705664","MEAN_MOTION":15.27760963,"ECCENTRICITY":0.0005946,"INCLINATION":97.4253,"RA_OF_ASC_NODE":186.0053,"ARG_OF_PERICENTER":159.7731,"MEAN_ANOMALY":200.3745,"EPHEMERIS_TYPE":0,"CLASSIFICATION_TYPE":"U","NORAD_CAT_ID":59773,"ELEMENT_SET_NO":999,"REV_AT_EPOCH":10127,"BSTAR":0.00056283,"MEAN_MOTION_DOT":0.00015211,"MEAN_MOTION_DDOT":0},{"OBJECT_NAME":"STARLINK-34170","OBJECT_ID":"2025-099D","EPOCH":"2026-03-09T08:54:16.994592","MEAN_MOTION":15.27573721,"ECCENTRICITY":0.00012718,"INCLINATION":43.0004,"RA_OF_ASC_NODE":178.3629,"ARG_OF_PERICENTER":244.0869,"MEAN_ANOMALY":115.9851,"EPHEMERIS_TYPE":0,"CLASSIFICATION_TYPE":"U","NORAD_CAT_ID":63955,"ELEMENT_SET_NO":999,"REV_AT_EPOCH":4727,"BSTAR":0.0010100443,"MEAN_MOTION_DOT":0.00027631,"MEAN_MOTION_DDOT":0}]
